ONEWEB-0520             
1 54138U 22138AB  25347.53033906 -.00000019  00000+0 -80478-4 0  9999
2 54138  87.9211 341.8981 0002017  82.5870 277.5492 13.19724788152335
ONEWEB-0521             
1 54139U 22138AC  25347.48769357  .00000144  00000+0  32786-3 0  9995
2 54139  87.9210 341.8910 0001826  96.3358 263.7983 13.19724568152279
ONEWEB-0522             
1 54140U 22138AD  25347.54297126  .00000018  00000+0  12913-4 0  9995
2 54140  87.9208 341.8812 0001971  86.5301 273.6057 13.19724090152327
ONEWEB-0523             
1 54141U 22138AE  25347.65360178  .00000054  00000+0  99955-4 0  9997
2 54141  87.9200 311.4409 0001134 101.4269 258.6992 13.20770239154811
ONEWEB-0524             
1 54142U 22138AF  25347.64257052  .00000045  00000+0  79588-4 0  9993
2 54142  87.9197 311.4452 0001191  53.4318 306.6925 13.20770854154812
ONEWEB-0525             
1 54143U 22138AG  25347.48611536  .00000193  00000+0  45012-3 0  9995
2 54143  87.9204 341.9126 0002028  82.4557 277.6806 13.19724837152333
ONEWEB-0526             
1 54144U 22138AH  25347.51927880  .00000033  00000+0  50230-4 0  9994
2 54144  87.9210 341.8947 0001821  85.2990 274.8351 13.19724464152311
ONEWEB-0529             
1 54145U 22138AJ  25347.52244022  .00000099  00000+0  21472-3 0  9993
2 54145  87.9196 341.9212 0001950  81.7262 278.4092 13.19725008152336
